GLOBALSTAR M045         
1 25676U 99019A   25044.22557589 -.00000040  00000+0  47143-3 0  9998
2 25676  51.9977 298.5893 0000825  34.8810 115.4599 12.27056476178177
GLOBALSTAR M019         
1 25677U 99019B   25044.44658875  .00000035  00000+0  13062-2 0  9998
2 25677  51.9888  59.6122 0001291  83.1078  84.1750 12.13874838170113
GLOBALSTAR M044         
1 25678U 99019C   25044.59049696 -.00000121  00000+0 -51709-3 0  9999
2 25678  52.0002 355.1121 0006301 159.4837  11.9819 11.90247009156604
GLOBALSTAR M042         
1 25679U 99019D   25044.33303755 -.00000071  00000+0  20383-3 0  9998
2 25679  52.0026  40.5953 0002942  47.6423  90.1436 12.22078178170116
GLOBALSTAR M025         
1 25770U 99031A   25044.54495013 -.00000035  00000+0  99993-3 0  9999
2 25770  51.9812  85.6969 0001078 284.8428 185.7565 11.22559264467825
GLOBALSTAR M049         
1 25771U 99031B   25044.49176650 -.00000083  00000+0 -61710-3 0  9997
2 25771  51.9868 114.3679 0003864 160.4166 199.6779 11.12114843103667
GLOBALSTAR M047         
1 25772U 99031C   25044.51861977 -.00000048  00000+0  60169-3 0  9991
2 25772  51.9824 123.0925 0016419  53.2953 306.9358 11.31925710457105
GLOBALSTAR M052         
1 25773U 99031D   25044.50620238 -.00000083  00000+0 -57488-3 0  9994
2 25773  51.9828 224.7508 0001976 355.8141  15.5812 11.15057652464714
